NAVSTAR 77 (USA 289)    
1 43873U 18109A   24261.07116508  .00000055  00000+0  00000+0 0  9995
2 43873  55.3322 117.3961 0030657 192.1951 340.3642  2.00559637 42223
